{
    "links": {
        "self": "http://www.neowsapp.com/rest/v1/neo/3549393?api_key=iIulBulltgU6a56xZRHN4H3l9WmuAYTsLGpBGhQ2"
    },
    "id": "3549393",
    "neo_reference_id": "3549393",
    "name": "(2010 TW149)",
    "designation": "2010 TW149",
    "nasa_jpl_url": "http://ssd.jpl.nasa.gov/sbdb.cgi?sstr=3549393",
    "absolute_magnitude_h": 25.9,
    "estimated_diameter": {
        "kilometers": {
            "estimated_diameter_min": 0.0175612318,
            "estimated_diameter_max": 0.0392681082
        },
        "meters": {
            "estimated_diameter_min": 17.561231848,
            "estimated_diameter_max": 39.2681081809
        },
        "miles": {
            "estimated_diameter_min": 0.0109120402,
            "estimated_diameter_max": 0.0244000636
        },
        "feet": {
            "estimated_diameter_min": 57.6155918963,
            "estimated_diameter_max": 128.8323800441
        }
    },
    "is_potentially_hazardous_asteroid": false,
    "close_approach_data": [
        {
            "close_approach_date": "2010-08-04",
            "close_approach_date_full": "2010-Aug-04 11:07",
            "epoch_date_close_approach": 1280920020000,
            "relative_velocity": {
                "kilometers_per_second": "15.0402419426",
                "kilometers_per_hour": "54144.8709934248",
                "miles_per_hour": "33643.5172014422"
            },
            "miss_distance": {
                "astronomical": "0.1057819906",
                "lunar": "41.1491943434",
                "kilometers": "15824760.478120022",
                "miles": "9833050.1965074236"
            },
            "orbiting_body": "Venus"
        },
        {
            "close_approach_date": "2010-10-06",
            "close_approach_date_full": "2010-Oct-06 15:40",
            "epoch_date_close_approach": 1286379600000,
            "relative_velocity": {
                "kilometers_per_second": "17.7821636726",
                "kilometers_per_hour": "64015.7892215296",
                "miles_per_hour": "39776.9219193443"
            },
            "miss_distance": {
                "astronomical": "0.0085897816",
                "lunar": "3.3414250424",
                "kilometers": "1285013.031125192",
                "miles": "798470.0719919696"
            },
            "orbiting_body": "Moon"
        },
        {
            "close_approach_date": "2010-10-06",
            "close_approach_date_full": "2010-Oct-06 19:53",
            "epoch_date_close_approach": 1286394780000,
            "relative_velocity": {
                "kilometers_per_second": "17.3241281848",
                "kilometers_per_hour": "62366.8614654413",
                "miles_per_hour": "38752.3423366793"
            },
            "miss_distance": {
                "astronomical": "0.0074955245",
                "lunar": "2.9157590305",
                "kilometers": "1121314.499732815",
                "miles": "696752.521290247"
            },
            "orbiting_body": "Earth"
        }
    ],
    "orbital_data": {
        "orbit_id": "6",
        "orbit_determination_date": "2017-04-06 08:56:15",
        "first_observation_date": "2010-10-14",
        "last_observation_date": "2010-10-15",
        "data_arc_in_days": 1,
        "observations_used": 20,
        "orbit_uncertainty": "9",
        "minimum_orbit_intersection": ".00421235",
        "jupiter_tisserand_invariant": "3.692",
        "epoch_osculation": "2455484.5",
        "eccentricity": ".6169177600813276",
        "semi_major_axis": "1.89577881040696",
        "inclination": "4.575195071160772",
        "ascending_node_longitude": "195.8578470499117",
        "orbital_period": "953.4104855931286",
        "perihelion_distance": ".7262391930810543",
        "perihelion_argument": "103.368777060687",
        "aphelion_distance": "3.065318427732865",
        "perihelion_time": "2455430.432651307378",
        "mean_anomaly": "20.41538856921106",
        "mean_motion": ".3775918195152212",
        "equinox": "J2000",
        "orbit_class": {
            "orbit_class_type": "APO",
            "orbit_class_description": "Near-Earth asteroid orbits which cross the Earth’s orbit similar to that of 1862 Apollo",
            "orbit_class_range": "a (semi-major axis) > 1.0 AU; q (perihelion) < 1.017 AU"
        }
    },
    "is_sentry_object": false
}